[{"OBJECT_NAME":"JY1SAT (JO-97)","OBJECT_ID":"2018-099AX","EPOCH":"2026-03-09T16:28:19.890048","MEAN_MOTION":15.30302629,"ECCENTRICITY":0.00047232,"INCLINATION":97.4249,"RA_OF_ASC_NODE":131.3625,"ARG_OF_PERICENTER":256.6795,"MEAN_ANOMALY":103.3919,"EPHEMERIS_TYPE":0,"CLASSIFICATION_TYPE":"U","NORAD_CAT_ID":43803,"ELEMENT_SET_NO":999,"REV_AT_EPOCH":39839,"BSTAR":0.00060804308,"MEAN_MOTION_DOT":0.00017774,"MEAN_MOTION_DDOT":0},{"OBJECT_NAME":"STARLINK-32086","OBJECT_ID":"2024-086X","EPOCH":"2026-03-09T22:28:53.017536","MEAN_MOTION":15.27571079,"ECCENTRICITY":0.00013712,"INCLINATION":43.0037,"RA_OF_ASC_NODE":58.1821,"ARG_OF_PERICENTER":273.8088,"MEAN_ANOMALY":86.2607,"EPHEMERIS_TYPE":0,"CLASSIFICATION_TYPE":"U","NORAD_CAT_ID":59703,"ELEMENT_SET_NO":999,"REV_AT_EPOCH":10415,"BSTAR":7.6627018e-5,"MEAN_MOTION_DOT":1.846e-5,"MEAN_MOTION_DDOT":0}]
